*******************************************************************************
Ephemeris / WWW_USER Mon Mar 24 07:07:37 2025 Pasadena, USA      / Horizons    
*******************************************************************************
Target body name: 358P/PANSTARRS                  {source: JPL#33}
Center body name: Earth (399)                     {source: DE441}
Center-site name: Mauna Kea
*******************************************************************************
Start time      : A.D. 2018-Oct-27 04:00:00.0000 UT      
Stop  time      : A.D. 2018-Oct-27 16:11:00.0000 UT      
Step-size       : 1 minutes
*******************************************************************************
Target pole/equ : undefined
Target radii    : undefined                                                    
Center geodetic : 204.5278, 19.8260847, 4.21024   {E-lon(deg),Lat(deg),Alt(km)}
Center cylindric: 204.5278, 6006.35451, 2151.0229 {E-lon(deg),Dxy(km),Dz(km)}
Center pole/equ : ITRF93                          {East-longitude positive}
Center radii    : 6378.137, 6378.137, 6356.752 km {Equator_a, b, pole_c}       
Target primary  : Sun
Vis. interferer : MOON (R_eq= 1737.400) km        {source: DE441}
Rel. light bend : Sun                             {source: DE441}
Rel. lght bnd GM: 1.3271E+11 km^3/s^2                                          
Small-body perts: Yes                             {source: SB441-N16}
Atmos refraction: NO (AIRLESS)
RA format       : HMS
Time format     : CAL 
Calendar mode   : Mixed Julian/Gregorian
RTS-only print  : NO       
EOP file        : eop.250321.p250617                                           
EOP coverage    : DATA-BASED 1962-JAN-20 TO 2025-MAR-21. PREDICTS-> 2025-JUN-16
Units conversion: 1 au= 149597870.700 km, c= 299792.458 km/s, 1 day= 86400.0 s 
Table cut-offs 1: Elevation (-90.0deg=NO ),Airmass (>38.000=NO), Daylight (YES)
Table cut-offs 2: Solar elongation (  0.0,180.0=NO ),Local Hour Angle( 0.0=NO )
Table cut-offs 3: RA/DEC angular rate (     0.0=NO )                           
*******************************************************************************
Initial IAU76/J2000 heliocentric ecliptic osculating elements (au, days, deg.):
  EPOCH=  2459793.5 ! 2022-Aug-02.0000000 (TDB)    RMSW= n.a.                  
   EC= .2388922136090974   QR= 2.394903345037887   TP= 2460259.6862889272      
   OM= 85.70246509974154   W= 299.7728624007243    IN= 11.06025031481611       
  Equivalent ICRF heliocentric cartesian coordinates (au, au/d):
   X= 3.243054425204740E-01  Y=-2.897679241187805E+00  Z=-1.376383147061824E+00
  VX= 8.746409534656921E-03 VY= 3.598394346577952E-03 VZ=-2.469697424538527E-04
Comet physical (GM= km^3/s^2; RAD= km):                                        
   GM= n.a.                RAD= n.a.                                           
   M1=  7.8      M2=  17.2     k1=  30.    k2=  5.      PHCOF=  .030           
Comet non-gravitational force model (AMRAT=m^2/kg;A1-A3=au/d^2;DT=days;R0=au): 
   AMRAT=  0.                                      DT=  0.                     
   A1= 0.                  A2= -2.303385920823E-10 A3= 0.                      
 Standard model:                                                               
   ALN=  .1112620426   NK=  4.6142   NM=  2.15     NN=  5.093    R0=  2.808    
*******************************************************************************
 Date__(UT)__HR:MN     R.A._________(ICRF)_________DEC
******************************************************
$$SOE
 2018-Oct-27 04:00 C   06 49 18.020090 +21 44 44.33983
 2018-Oct-27 04:01 C   06 49 18.036836 +21 44 44.45616
 2018-Oct-27 04:02 C   06 49 18.053580 +21 44 44.57251
 2018-Oct-27 04:03 C   06 49 18.070321 +21 44 44.68889
 2018-Oct-27 04:04 C   06 49 18.087059 +21 44 44.80531
 2018-Oct-27 04:05 C   06 49 18.103795 +21 44 44.92175
 2018-Oct-27 04:06 C   06 49 18.120528 +21 44 45.03822
 2018-Oct-27 04:07 C   06 49 18.137259 +21 44 45.15472
 2018-Oct-27 04:08 C   06 49 18.153988 +21 44 45.27124
 2018-Oct-27 04:09 C   06 49 18.170713 +21 44 45.38780
 2018-Oct-27 04:10 C   06 49 18.187436 +21 44 45.50438
 2018-Oct-27 04:11 C   06 49 18.204157 +21 44 45.62099
 2018-Oct-27 04:12 C   06 49 18.220875 +21 44 45.73763
 2018-Oct-27 04:13 C   06 49 18.237590 +21 44 45.85430
 2018-Oct-27 04:14 N   06 49 18.254302 +21 44 45.97100
 2018-Oct-27 04:15 N   06 49 18.271012 +21 44 46.08773
 2018-Oct-27 04:16 N   06 49 18.287719 +21 44 46.20448
 2018-Oct-27 04:17 N   06 49 18.304423 +21 44 46.32126
 2018-Oct-27 04:18 N   06 49 18.321124 +21 44 46.43807
 2018-Oct-27 04:19 N   06 49 18.337823 +21 44 46.55491
 2018-Oct-27 04:20 N   06 49 18.354518 +21 44 46.67177
 2018-Oct-27 04:21 N   06 49 18.371211 +21 44 46.78867
 2018-Oct-27 04:22 N   06 49 18.387901 +21 44 46.90559
 2018-Oct-27 04:23 N   06 49 18.404588 +21 44 47.02254
 2018-Oct-27 04:24 N   06 49 18.421272 +21 44 47.13951
 2018-Oct-27 04:25 N   06 49 18.437953 +21 44 47.25652
 2018-Oct-27 04:26 N   06 49 18.454631 +21 44 47.37355
 2018-Oct-27 04:27 N   06 49 18.471307 +21 44 47.49061
 2018-Oct-27 04:28 N   06 49 18.487979 +21 44 47.60770
 2018-Oct-27 04:29 N   06 49 18.504648 +21 44 47.72481
 2018-Oct-27 04:30 N   06 49 18.521314 +21 44 47.84196
 2018-Oct-27 04:31 N   06 49 18.537977 +21 44 47.95913
 2018-Oct-27 04:32 N   06 49 18.554637 +21 44 48.07632
 2018-Oct-27 04:33 N   06 49 18.571293 +21 44 48.19355
 2018-Oct-27 04:34 N   06 49 18.587947 +21 44 48.31080
 2018-Oct-27 04:35 N   06 49 18.604598 +21 44 48.42808
 2018-Oct-27 04:36 N   06 49 18.621245 +21 44 48.54539
 2018-Oct-27 04:37 N   06 49 18.637889 +21 44 48.66272
 2018-Oct-27 04:38 N   06 49 18.654530 +21 44 48.78008
 2018-Oct-27 04:39 N   06 49 18.671167 +21 44 48.89747
 2018-Oct-27 04:40 A   06 49 18.687801 +21 44 49.01488
 2018-Oct-27 04:41 A   06 49 18.704432 +21 44 49.13232
 2018-Oct-27 04:42 A   06 49 18.721060 +21 44 49.24979
 2018-Oct-27 04:43 A   06 49 18.737684 +21 44 49.36729
 2018-Oct-27 04:44 A   06 49 18.754305 +21 44 49.48481
 2018-Oct-27 04:45 A   06 49 18.770923 +21 44 49.60236
 2018-Oct-27 04:46 A   06 49 18.787537 +21 44 49.71993
 2018-Oct-27 04:47 A   06 49 18.804147 +21 44 49.83753
 2018-Oct-27 04:48 A   06 49 18.820755 +21 44 49.95516
 2018-Oct-27 04:49 A   06 49 18.837359 +21 44 50.07282
 2018-Oct-27 04:50 A   06 49 18.853959 +21 44 50.19050
 2018-Oct-27 04:51 A   06 49 18.870556 +21 44 50.30821
 2018-Oct-27 04:52 A   06 49 18.887149 +21 44 50.42594
 2018-Oct-27 04:53 A   06 49 18.903739 +21 44 50.54370
 2018-Oct-27 04:54 A   06 49 18.920325 +21 44 50.66148
 2018-Oct-27 04:55 A   06 49 18.936907 +21 44 50.77930
 2018-Oct-27 04:56 A   06 49 18.953486 +21 44 50.89713
 2018-Oct-27 04:57 A   06 49 18.970062 +21 44 51.01500
 2018-Oct-27 04:58 A   06 49 18.986633 +21 44 51.13289
 2018-Oct-27 04:59 A   06 49 19.003201 +21 44 51.25080
 2018-Oct-27 05:00 A   06 49 19.019766 +21 44 51.36874
 2018-Oct-27 05:01 A   06 49 19.036326 +21 44 51.48671
 2018-Oct-27 05:02 A   06 49 19.052883 +21 44 51.60470
 2018-Oct-27 05:03 A   06 49 19.069436 +21 44 51.72272
 2018-Oct-27 05:04 A   06 49 19.085985 +21 44 51.84076
 2018-Oct-27 05:05     06 49 19.102531 +21 44 51.95883
 2018-Oct-27 05:06     06 49 19.119073 +21 44 52.07693
 2018-Oct-27 05:07     06 49 19.135611 +21 44 52.19504
 2018-Oct-27 05:08     06 49 19.152145 +21 44 52.31319
 2018-Oct-27 05:09     06 49 19.168675 +21 44 52.43136
 2018-Oct-27 05:10     06 49 19.185201 +21 44 52.54955
 2018-Oct-27 05:11     06 49 19.201723 +21 44 52.66777
 2018-Oct-27 05:12     06 49 19.218242 +21 44 52.78602
 2018-Oct-27 05:13     06 49 19.234756 +21 44 52.90429
 2018-Oct-27 05:14     06 49 19.251267 +21 44 53.02258
 2018-Oct-27 05:15     06 49 19.267773 +21 44 53.14090
 2018-Oct-27 05:16     06 49 19.284276 +21 44 53.25924
 2018-Oct-27 05:17     06 49 19.300774 +21 44 53.37761
 2018-Oct-27 05:18     06 49 19.317269 +21 44 53.49600
 2018-Oct-27 05:19     06 49 19.333759 +21 44 53.61442
 2018-Oct-27 05:20     06 49 19.350245 +21 44 53.73286
 2018-Oct-27 05:21     06 49 19.366727 +21 44 53.85132
 2018-Oct-27 05:22     06 49 19.383205 +21 44 53.96981
 2018-Oct-27 05:23     06 49 19.399679 +21 44 54.08833
 2018-Oct-27 05:24     06 49 19.416149 +21 44 54.20686
 2018-Oct-27 05:25     06 49 19.432614 +21 44 54.32543
 2018-Oct-27 05:26     06 49 19.449076 +21 44 54.44401
 2018-Oct-27 05:27     06 49 19.465533 +21 44 54.56262
 2018-Oct-27 05:28     06 49 19.481986 +21 44 54.68125
 2018-Oct-27 05:29     06 49 19.498434 +21 44 54.79991
 2018-Oct-27 05:30     06 49 19.514879 +21 44 54.91859
 2018-Oct-27 05:31     06 49 19.531319 +21 44 55.03729
 2018-Oct-27 05:32     06 49 19.547754 +21 44 55.15602
 2018-Oct-27 05:33     06 49 19.564186 +21 44 55.27477
 2018-Oct-27 05:34     06 49 19.580613 +21 44 55.39354
 2018-Oct-27 05:35     06 49 19.597036 +21 44 55.51234
 2018-Oct-27 05:36     06 49 19.613454 +21 44 55.63116
 2018-Oct-27 05:37     06 49 19.629868 +21 44 55.75000
 2018-Oct-27 05:38     06 49 19.646277 +21 44 55.86887
 2018-Oct-27 05:39     06 49 19.662682 +21 44 55.98775
 2018-Oct-27 05:40     06 49 19.679083 +21 44 56.10667
 2018-Oct-27 05:41     06 49 19.695479 +21 44 56.22560
 2018-Oct-27 05:42     06 49 19.711870 +21 44 56.34456
 2018-Oct-27 05:43     06 49 19.728258 +21 44 56.46353
 2018-Oct-27 05:44  m  06 49 19.744640 +21 44 56.58253
 2018-Oct-27 05:45  m  06 49 19.761018 +21 44 56.70156
 2018-Oct-27 05:46  m  06 49 19.777392 +21 44 56.82060
 2018-Oct-27 05:47  m  06 49 19.793760 +21 44 56.93967
 2018-Oct-27 05:48  m  06 49 19.810125 +21 44 57.05876
 2018-Oct-27 05:49  m  06 49 19.826484 +21 44 57.17787
 2018-Oct-27 05:50  m  06 49 19.842839 +21 44 57.29701
 2018-Oct-27 05:51  m  06 49 19.859190 +21 44 57.41616
 2018-Oct-27 05:52  m  06 49 19.875536 +21 44 57.53534
 2018-Oct-27 05:53  m  06 49 19.891877 +21 44 57.65454
 2018-Oct-27 05:54  m  06 49 19.908213 +21 44 57.77376
 2018-Oct-27 05:55  m  06 49 19.924545 +21 44 57.89300
 2018-Oct-27 05:56  m  06 49 19.940871 +21 44 58.01226
